$$SOE
2459580.500000000, A.D. 2022-Jan-01 00:00:00.0000, -2.388072446179552E+08, 3.267505309649742E+08, -7.704837304597931E+07,
2459587.500000000, A.D. 2022-Jan-08 00:00:00.0000, -2.465387336946553E+08, 3.199761197601183E+08, -7.861864644803347E+07,
2459594.500000000, A.D. 2022-Jan-15 00:00:00.0000, -2.540985368995180E+08, 3.129788240043343E+08, -8.013415293214585E+07,
2459601.500000000, A.D. 2022-Jan-22 00:00:00.0000, -2.614807494678363E+08, 3.057627350834733E+08, -8.159363695850495E+07,
2459608.500000000, A.D. 2022-Jan-29 00:00:00.0000, -2.686795178840388E+08, 2.983320943424333E+08, -8.299586369569209E+07,
2459615.500000000, A.D. 2022-Feb-05 00:00:00.0000, -2.756890445068913E+08, 2.906912939201176E+08, -8.433961956407142E+07,
2459622.500000000, A.D. 2022-Feb-12 00:00:00.0000, -2.825035901695972E+08, 2.828448765473611E+08, -8.562371310063803E+07,
2459629.500000000, A.D. 2022-Feb-19 00:00:00.0000, -2.891174760921493E+08, 2.747975366661952E+08, -8.684697583129123E+07,
2459636.500000000, A.D. 2022-Feb-26 00:00:00.0000, -2.955250864299467E+08, 2.665541221426361E+08, -8.800826309347335E+07,
2459643.500000000, A.D. 2022-Mar-05 00:00:00.0000, -3.017208713085167E+08, 2.581196359514318E+08, -8.910645487787284E+07,
2459650.500000000, A.D. 2022-Mar-12 00:00:00.0000, -3.076993501300764E+08, 2.494992377609105E+08, -9.014045671781081E+07,
2459657.500000000, A.D. 2022-Mar-19 00:00:00.0000, -3.134551150876884E+08, 2.406982454386515E+08, -9.110920063289395E+07,
2459664.500000000, A.D. 2022-Mar-26 00:00:00.0000, -3.189828348709406E+08, 2.317221364635041E+08, -9.201164613129033E+07,
2459671.500000000, A.D. 2022-Apr-02 00:00:00.0000, -3.242772585014270E+08, 2.225765491783750E+08, -9.284678128276876E+07,
2459678.500000000, A.D. 2022-Apr-09 00:00:00.0000, -3.293332190318853E+08, 2.132672838776975E+08, -9.361362388803291E+07,
2459685.500000000, A.D. 2022-Apr-16 00:00:00.0000, -3.341456367577428E+08, 2.038003043714671E+08, -9.431122272432792E+07,
2459692.500000000, A.D. 2022-Apr-23 00:00:00.0000, -3.387095232167246E+08, 1.941817410968418E+08, -9.493865866323683E+07,
2459699.500000000, A.D. 2022-Apr-30 00:00:00.0000, -3.430199878546761E+08, 1.844178935195736E+08, -9.549504567457558E+07,
2459706.500000000, A.D. 2022-May-07 00:00:00.0000, -3.470722442997731E+08, 1.745152298397368E+08, -9.597953215948570E+07,
2459713.500000000, A.D. 2022-May-14 00:00:00.0000, -3.508616148578699E+08, 1.644803870234141E+08, -9.639130249025458E+07,
2459720.500000000, A.D. 2022-May-21 00:00:00.0000, -3.543835352660554E+08, 1.543201719005723E+08, -9.672957850857314E+07,
2459727.500000000, A.D. 2022-May-28 00:00:00.0000, -3.576335601900759E+08, 1.440415623542182E+08, -9.699362101822242E+07,
2459734.500000000, A.D. 2022-Jun-04 00:00:00.0000, -3.606073691927328E+08, 1.336517082715842E+08, -9.718273132362193E+07,
2459741.500000000, A.D. 2022-Jun-11 00:00:00.0000, -3.633007730314049E+08, 1.231579322412231E+08, -9.729625282687911E+07,
2459748.500000000, A.D. 2022-Jun-18 00:00:00.0000, -3.657097202483284E+08, 1.125677299896836E+08, -9.733357268512383E+07,
2459755.500000000, A.D. 2022-Jun-25 00:00:00.0000, -3.678303040258849E+08, 1.018887705040850E+08, -9.729412353270456E+07,
2459762.500000000, A.D. 2022-Jul-02 00:00:00.0000, -3.696587691736078E+08, 9.112889575349723E+07, -9.717738528479864E+07,
2459769.500000000, A.D. 2022-Jul-09 00:00:00.0000, -3.711915188560924E+08, 8.029612016376108E+07, -9.698288704220024E+07,
2459776.500000000, A.D. 2022-Jul-16 00:00:00.0000, -3.724251211150068E+08, 6.939863090481810E+07, -9.671020900161931E+07,
2459783.500000000, A.D. 2022-Jul-23 00:00:00.0000, -3.733563173812312E+08, 5.844478904284208E+07, -9.635898416146341E+07,
2459790.500000000, A.D. 2022-Jul-30 00:00:00.0000, -3.739820328914128E+08, 4.744312817799799E+07, -9.592890010377222E+07,
2459797.500000000, A.D. 2022-Aug-06 00:00:00.0000, -3.742993854050035E+08, 3.640235119217019E+07, -9.541970112682228E+07,
2459804.500000000, A.D. 2022-Aug-13 00:00:00.0000, -3.743056930343195E+08, 2.533132783442974E+07, -9.483119042227644E+07,
2459811.500000000, A.D. 2022-Aug-20 00:00:00.0000, -3.739984827467772E+08, 1.423909261051619E+07, -9.416323218932138E+07,
2459818.500000000, A.D. 2022-Aug-27 00:00:00.0000, -3.733754994619892E+08, 3.134842220159873E+06, -9.341575374815327E+07,
2459825.500000000, A.D. 2022-Sep-03 00:00:00.0000, -3.724347154840061E+08, -7.972067596782379E+06, -9.258874768054941E+07,
2459832.500000000, A.D. 2022-Sep-10 00:00:00.0000, -3.711743401635705E+08, -1.907212581051492E+07, -9.168227399861442E+07,
2459839.500000000, A.D. 2022-Sep-17 00:00:00.0000, -3.695928297435065E+08, -3.015567047929113E+07, -9.069646233877341E+07,
2459846.500000000, A.D. 2022-Sep-24 00:00:00.0000, -3.676888973071707E+08, -4.121289383570696E+07, -8.963151418455942E+07,
2459853.500000000, A.D. 2022-Oct-01 00:00:00.0000, -3.654615225675896E+08, -5.223384813228804E+07, -8.848770513511173E+07,
2459860.500000000, A.D. 2022-Oct-08 00:00:00.0000, -3.629099610636042E+08, -6.320845175163066E+07, -8.726538720560133E+07,
2459867.500000000, A.D. 2022-Oct-15 00:00:00.0000, -3.600337536631073E+08, -7.412649440873963E+07, -8.596499096546435E+07,
2459874.500000000, A.D. 2022-Oct-22 00:00:00.0000, -3.568327385189959E+08, -8.497764315796915E+07, -8.458702744019729E+07,
2459881.500000000, A.D. 2022-Oct-29 00:00:00.0000, -3.533070629434220E+08, -9.575145182799985E+07, -8.313209020701566E+07,
2459888.500000000, A.D. 2022-Nov-05 00:00:00.0000, -3.494571930626215E+08, -1.064373711716947E+08, -8.160085764250252E+07,
2459895.500000000, A.D. 2022-Nov-12 00:00:00.0000, -3.452839231746416E+08, -1.170247584893751E+08, -7.999409502737048E+07,
2459902.500000000, A.D. 2022-Nov-19 00:00:00.0000, -3.407883854848587E+08, -1.275028877039684E+08, -7.831265650959089E+07,
2459909.500000000, A.D. 2022-Nov-26 00:00:00.0000, -3.359720599115980E+08, -1.378609603062741E+08, -7.655748697174680E+07,
2459916.500000000, A.D. 2022-Dec-03 00:00:00.0000, -3.308367837468854E+08, -1.480881171979071E+08, -7.472962380637690E+07,
2459923.500000000, A.D. 2022-Dec-10 00:00:00.0000, -3.253847610724341E+08, -1.581734514253670E+08, -7.283019858724898E+07,
2459930.500000000, A.D. 2022-Dec-17 00:00:00.0000, -3.196185718469295E+08, -1.681060218395115E+08, -7.086043862476872E+07,
2459937.500000000, A.D. 2022-Dec-24 00:00:00.0000, -3.135411804925234E+08, -1.778748677524147E+08, -6.882166840430801E+07,
2459944.500000000, A.D. 2022-Dec-31 00:00:00.0000, -3.071559435574908E+08, -1.874690244861205E+08, -6.671531091457722E+07,
2459951.500000000, A.D. 2023-Jan-07 00:00:00.0000, -3.004666162641423E+08, -1.968775388477627E+08, -6.454288878137436E+07,
2459958.500000000, A.D. 2023-Jan-14 00:00:00.0000, -2.934773598375740E+08, -2.060894840256820E+08, -6.230602496803654E+07,
2459965.500000000, A.D. 2023-Jan-21 00:00:00.0000, -2.861927501870551E+08, -2.150939770664665E+08, -6.000644322564526E+07,
2459972.500000000, A.D. 2023-Jan-28 00:00:00.0000, -2.786177842006191E+08, -2.238801991106243E+08, -5.764596862925163E+07,
2459979.500000000, A.D. 2023-Feb-04 00:00:00.0000, -2.707578837893939E+08, -2.324374153324159E+08, -5.522652791671742E+07,
2459986.500000000, A.D. 2023-Feb-11 00:00:00.0000, -2.626188994016398E+08, -2.407549947415234E+08, -5.275014946338657E+07,
2459993.500000000, A.D. 2023-Feb-18 00:00:00.0000, -2.542071129923729E+08, -2.488224306269969E+08, -5.021896293636727E+07,
2460000.500000000, A.D. 2023-Feb-25 00:00:00.0000, -2.455292401092004E+08, -2.566293617571134E+08, -4.763519864955641E+07,
2460007.500000000, A.D. 2023-Mar-04 00:00:00.0000, -2.365924309189667E+08, -2.641655942616287E+08, -4.500118661259027E+07,
2460014.500000000, A.D. 2023-Mar-11 00:00:00.0000, -2.274042700767633E+08, -2.714211241325818E+08, -4.231935526240084E+07,
2460021.500000000, A.D. 2023-Mar-18 00:00:00.0000, -2.179727753229192E+08, -2.783861603208561E+08, -3.959222987244490E+07,
2460028.500000000, A.D. 2023-Mar-25 00:00:00.0000, -2.083063945403809E+08, -2.850511483953277E+08, -3.682243064995573E+07,
2460035.500000000, A.D. 2023-Apr-01 00:00:00.0000, -1.984140007881019E+08, -2.914067942831250E+08, -3.401267051742527E+07,
2460042.500000000, A.D. 2023-Apr-08 00:00:00.0000, -1.883048858711887E+08, -2.974440867698402E+08, -3.116575241291043E+07,
2460049.500000000, A.D. 2023-Apr-15 00:00:00.0000, -1.779887547353818E+08, -3.031543197619763E+08, -2.828456597842531E+07,
2460056.500000000, A.D. 2023-Apr-22 00:00:00.0000, -1.674757188346128E+08, -3.085291172553716E+08, -2.537208404787746E+07,
2460063.500000000, A.D. 2023-Apr-29 00:00:00.0000, -1.567762857053973E+08, -3.135604586448612E+08, -2.243135900011693E+07,
2460070.500000000, A.D. 2023-May-06 00:00:00.0000, -1.459013464873378E+08, -3.182407024751487E+08, -1.946551867083043E+07,
2460077.500000000, A.D. 2023-May-13 00:00:00.0000, -1.348621623549153E+08, -3.225626094005901E+08, -1.647776180961561E+07,
2460084.500000000, A.D. 2023-May-20 00:00:00.0000, -1.236703496247460E+08, -3.265193647136919E+08, -1.347135314943527E+07,
2460091.500000000, A.D. 2023-May-27 00:00:00.0000, -1.123378633530439E+08, -3.301046003368301E+08, -1.044961811737195E+07,
2460098.500000000, A.D. 2023-Jun-03 00:00:00.0000, -1.008769793846292E+08, -3.333124161155822E+08, -7.415937202084109E+06,
2460105.500000000, A.D. 2023-Jun-10 00:00:00.0000, -8.930027486091411E+07, -3.361374002928074E+08, -4.373739996735245E+06,
2460112.500000000, A.D. 2023-Jun-17 00:00:00.0000, -7.762060714152217E+07, -3.385746490904167E+08, -1.326498948922232E+06,
2460119.500000000, A.D. 2023-Jun-24 00:00:00.0000, -6.585109087562113E+07, -3.406197852131909E+08, 1.722277136126518E+06,
2460126.500000000, A.D. 2023-Jul-01 00:00:00.0000, -5.400507303973812E+07, -3.422689743210029E+08, 4.769049859258845E+06,
2460133.500000000, A.D. 2023-Jul-08 00:00:00.0000, -4.209610770046982E+07, -3.435189385243714E+08, 7.810258451821461E+06,
2460140.500000000, A.D. 2023-Jul-15 00:00:00.0000, -3.013793187438668E+07, -3.443669696114394E+08, 1.084232731651850E+07,
$$EOE